OBJECT_NAME,OBJECT_ID,EPOCH,MEAN_MOTION,ECCENTRICITY,INCLINATION,RA_OF_ASC_NODE,ARG_OF_PERICENTER,MEAN_ANOMALY,EPHEMERIS_TYPE,CLASSIFICATION_TYPE,NORAD_CAT_ID,ELEMENT_SET_NO,REV_AT_EPOCH,BSTAR,MEAN_MOTION_DOT,MEAN_MOTION_DDOT
HXMT (HUIYAN),2017-034A,2026-06-18T17:06:45.768672,15.18484166,.0030777,43.0125,174.5445,157.0111,203.2122,0,U,42758,999,49789,.11034E-3,.2097E-4,0
SAOCOM 1A,2018-076A,2026-06-18T18:09:03.886272,14.82151065,.0001597,97.8878,356.4816,80.6160,279.5234,0,U,43641,999,41633,.91415E-4,.675E-5,0
H-2A R/B,2018-084L,2026-06-18T16:22:42.593088,15.45202625,.0023341,98.8568,48.8986,35.6096,324.6700,0,U,43682,999,42135,.3455E-3,.16466E-3,0
SAOCOM 1B,2020-059A,2026-06-18T17:16:42.822048,14.82145452,.000158,97.8881,355.5406,83.1260,277.0133,0,U,46265,999,31371,-.23295E-4,-.238E-5,0
CSS (TIANHE),2021-035A,2026-06-18T15:22:31.365120,15.60865815,.0007393,41.4698,313.1563,89.7145,270.4541,0,U,48274,999,29339,.21791E-3,.1846E-3,0
COSMOS 2550,2021-056A,2026-06-17T22:29:15.459936,15.33847751,.00083421,67.1435,97.6381,268.6108,91.4090,0,U,48865,999,27883,.21058896E-3,.6747E-4,0
CZ-2C R/B,2022-058K,2026-06-18T07:54:48.898368,15.61926706,.0032461,50.1842,157.5724,272.7164,87.0094,0,U,52794,999,22582,.35493E-3,.31967E-3,0
CZ-2C R/B,2022-132E,2026-06-18T11:45:01.312992,15.71620785,.0015947,97.2898,176.5717,80.1262,280.1801,0,U,54039,999,20615,.37493E-3,.48548E-3,0
GSLV R/B,2022-138AN,2026-06-18T15:43:07.794048,14.97263486,.0023101,87.3809,132.4915,138.7263,221.5721,0,U,54149,999,19903,.17236E-3,.2035E-4,0
XRISM,2023-137A,2026-06-18T12:15:11.537280,15.12476157,.0007954,31.0031,351.0296,336.9213,23.1068,0,U,57800,999,15306,.21469E-3,.3928E-4,0
ACS3,2024-077B,2026-06-18T17:06:25.035264,13.94149238,.0078534,97.1684,88.1609,62.3690,298.5421,0,U,59588,999,10825,.3088E-1,.42193E-3,0
CZ-8A R/B,2025-231K,2026-06-18T07:26:03.785856,14.30155190,.0116487,50.0055,34.5401,227.9599,131.1358,0,U,66004,999,3510,.5115E-4,-.2E-6,0
SZ-21 MODULE,2025-246C,2026-06-18T10:04:01.553088,15.76496050,.0006546,41.4747,299.6525,354.9385,5.1392,0,U,66515,999,3393,.23745E-3,.38742E-3,0
